{"epoch":1784799577,"count":18318,"objects":[{"id":"62804","name":"TJS-14","type":"PAYLOAD","l1":"1 62804U 25017A   26203.97438521  .00000120  00000-0  00000-0 0  9990","l2":"2 62804   0.7042 298.3965 0001823 301.5473  69.8997  1.00271204  5633"},{"id":"62852","name":"SPAINSAT NG1","type":"PAYLOAD","l1":"1 62852U 25021A   26203.88940637  .00000155  00000-0  00000-0 0  9992","l2":"2 62852   0.0062  85.0264 0000315 351.7877 212.9784  1.00271314  4348"},{"id":"62876","name":"QZS-6","type":"PAYLOAD","l1":"1 62876U 25023A   26203.91353763 -.00000229  00000-0  00000-0 0  9995","l2":"2 62876   0.0181  52.9322 0002063  62.4265 244.6632  1.00273907  5304"},{"id":"63075","name":"CHINASAT 10R","type":"PAYLOAD","l1":"1 63075U 25036A   26203.92396403 -.00000348  00000-0  00000-0 0  9992","l2":"2 63075   0.0689 247.2785 0004734 259.5488 236.9523  1.00269795  5318"},{"id":"63157","name":"TJS-15","type":"PAYLOAD","l1":"1 63157U 25045A   26203.50712691 -.00000261  00000-0  00000+0 0  9991","l2":"2 63157   0.3115  85.6557 0003090 297.6615 193.9017  1.00271911  5117"},{"id":"63361","name":"TIANLIAN-2 04","type":"PAYLOAD","l1":"1 63361U 25062A   26203.84406388 -.00000127  00000-0  00000-0 0  9999","l2":"2 63361   4.2850 273.9250 0031273   9.2138  41.3472  1.00272740  4960"},{"id":"63397","name":"TJS-16","type":"PAYLOAD","l1":"1 63397U 25064A   26203.51141742 -.00000103  00000-0  00000+0 0  9997","l2":"2 63397   1.1868  81.2424 0002416 298.6317 265.0980  1.00271665  4747"},{"id":"63524","name":"TJS-17","type":"PAYLOAD","l1":"1 63524U 25073A   26203.50765978 -.00000067  00000-0  00000+0 0  9990","l2":"2 63524   1.1528  82.3957 0001022 323.4327 241.6719  1.00271970  4643"},{"id":"63662","name":"TIANLIAN-2 05","type":"PAYLOAD","l1":"1 63662U 25084A   26203.88607584  .00000134  00000-0  00000-0 0  9999","l2":"2 63662   4.3625 279.4265 0002811 160.3349 200.2373  1.00274468  4742"},{"id":"63924","name":"TJS-19","type":"PAYLOAD","l1":"1 63924U 25097A   26203.51619766 -.00000269  00000-0  00000+0 0  9998","l2":"2 63924   3.2283 318.0264 0004176 248.7017  60.6064  1.00274057  4490"},{"id":"64062","name":"CHINASAT 3B","type":"PAYLOAD","l1":"1 64062U 25106A   26203.79001200 -.00000041  00000-0  00000-0 0  9990","l2":"2 64062   0.0330 195.3200 0004344 311.2125 245.7028  1.00271318  4416"},{"id":"64290","name":"SIRIUS XM-10","type":"PAYLOAD","l1":"1 64290U 25122A   26203.73376319 -.00000013  00000-0  00000-0 0  9990","l2":"2 64290   0.0177  46.4440 0001712 324.8574  77.1480  1.00270646  4045"},{"id":"64467","name":"COSMOS 2589","type":"PAYLOAD","l1":"1 64467U 25131A   26203.49113676 -.00000292  00000-0  00000+0 0  9992","l2":"2 64467   0.0296 115.0181 0001317 302.3327 157.7754  1.00299459  3913"},{"id":"64470","name":"CHINASAT-9C","type":"PAYLOAD","l1":"1 64470U 25132A   26203.91773696 -.00000243  00000-0  00000-0 0  9995","l2":"2 64470   0.0175 102.9940 0003618  13.7499 246.5048  1.00272640  4502"},{"id":"64723","name":"MTG-S1","type":"PAYLOAD","l1":"1 64723U 25143A   26203.92933429 -.00000002  00000-0  00000-0 0  9994","l2":"2 64723   0.5805 346.8369 0003172 255.9324  32.1378  1.00275914  3774"},{"id":"64784","name":"DROR-1","type":"PAYLOAD","l1":"1 64784U 25148A   26203.89868762 -.00000030  00000-0  00000-0 0  9990","l2":"2 64784   0.0130 328.0758 0001904  82.2969 209.7816  1.00271076  3659"},{"id":"65486","name":"SHIYAN 29","type":"PAYLOAD","l1":"1 65486U 25196A   26203.83002885 -.00000281  00000-0  00000-0 0  9991","l2":"2 65486  28.8597  18.0856 0013286 176.3842 140.2620  1.00275016  3234"},{"id":"65588","name":"PSN N5","type":"PAYLOAD","l1":"1 65588U 25205A   26203.77926529 -.00000354  00000-0  00000-0 0  9999","l2":"2 65588   0.0066  84.7527 0000420  99.5886 149.5664  1.00271495  3074"},{"id":"66142","name":"TJS-20","type":"PAYLOAD","l1":"1 66142U 25238A   26203.91175693  .00000036  00000-0  00000-0 0  9992","l2":"2 66142   5.3906 299.4108 0004006 189.8420 202.0377  1.00269690  2690"},{"id":"66311","name":"CMS 03","type":"PAYLOAD","l1":"1 66311U 25249B   26203.88656171 -.00000073  00000-0  00000-0 0  9995","l2":"2 66311   0.0194  69.0683 0002466  49.6343 215.0706  1.00272088  2700"},{"id":"66454","name":"VIASAT 3-F2","type":"PAYLOAD","l1":"1 66454U 25261A   26203.59871705 -.00000230  00000-0  00000-0 0  9992","l2":"2 66454   0.0221 260.1519 0000662 316.7367 220.0309  1.00272701  3147"},{"id":"66549","name":"SJ-28","type":"PAYLOAD","l1":"1 66549U 25277A   26203.70871640 -.00000352  00000-0  00000-0 0  9990","l2":"2 66549   4.4481 271.5664 0001059  58.5297 342.3362  1.00273427  2512"},{"id":"66990","name":"TJS-22","type":"PAYLOAD","l1":"1 66990U 25290A   26203.77984417 -.00000001  00000-0  00000-0 0  9990","l2":"2 66990   1.4446 287.0551 0002951 317.8268  42.8374  1.00271447  2388"},{"id":"67226","name":"TJS-23","type":"PAYLOAD","l1":"1 67226U 25306A   26203.50473065  .00000026  00000-0  00000-0 0  9990","l2":"2 67226   5.5094 297.3022 0004434 203.0211 157.1425  1.00269065  2249"},{"id":"67246","name":"FENGYUNG-4C","type":"PAYLOAD","l1":"1 67246U 25312A   26194.65865777 -.00000328  00000-0  00000-0 0  9995","l2":"2 67246   0.0385 175.3203 0000658  48.7481  77.5697  1.00269440  2048"},{"id":"67302","name":"SJ-29A","type":"PAYLOAD","l1":"1 67302U 25315A   26203.95187301 -.00000067  00000-0  00000-0 0  9995","l2":"2 67302   3.4863  94.2528 0005348  53.7920 208.5244  1.00273402  1971"},{"id":"67403","name":"SJ-29B","type":"PAYLOAD","l1":"1 67403U 25315C   26203.95186013 -.00000067  00000-0  00000-0 0  9996","l2":"2 67403   3.4852  94.2456 0005419  55.4871 206.8764  1.00273618  2040"},{"id":"67756","name":"ELEKTRO-L 5","type":"PAYLOAD","l1":"1 67756U 26028A   26202.95609850 -.00000095  00000-0  00000-0 0  9998","l2":"2 67756   0.1994 328.9109 0002087 176.6572 214.4329  1.00271768  1603"},{"id":"67757","name":"JAM-E JAM 1","type":"PAYLOAD","l1":"1 67757U 26028B   26203.89272814  .00000160  00000-0  00000-0 0  9991","l2":"2 67757   0.1935 316.8204 0000711 246.0778  93.0622  1.00268547  1476"},{"id":"68126","name":"ECHOSTAR 25","type":"PAYLOAD","l1":"1 68126U 26045A   26203.30740793 -.00000053  00000-0  00000-0 0  9995","l2":"2 68126   0.0170  61.1347 0001568  56.2645 183.3123  1.00272612  1343"},{"id":"69235","name":"TJS-24","type":"PAYLOAD","l1":"1 69235U 26116A   26203.91357170 -.00000228  00000-0  00000-0 0  9990","l2":"2 69235   0.0960  93.7022 0000244 120.2681 145.8815  1.00273212   588"}]}