OBJECT_NAME,OBJECT_ID,EPOCH,MEAN_MOTION,ECCENTRICITY,INCLINATION,RA_OF_ASC_NODE,ARG_OF_PERICENTER,MEAN_ANOMALY,EPHEMERIS_TYPE,CLASSIFICATION_TYPE,NORAD_CAT_ID,ELEMENT_SET_NO,REV_AT_EPOCH,BSTAR,MEAN_MOTION_DOT,MEAN_MOTION_DDOT
TJS-14,2025-017A,2026-07-22T23:23:06.882144,1.00271204,.00018227,0.7042,298.3965,301.5473,69.8997,0,U,62804,999,563,0,.12E-5,0
SPAINSAT NG I,2025-021A,2026-07-22T21:20:44.710368,1.00271314,.00003148,0.0062,85.0264,351.7877,212.9784,0,U,62852,999,434,0,.155E-5,0
QZS-6 (MICHIBIKI-6),2025-023A,2026-07-22T21:55:29.651232,1.00273907,.00020626,0.0181,52.9322,62.4265,244.6632,0,U,62876,999,530,0,-.229E-5,0
ZHONGXING-10R,2025-036A,2026-07-22T22:10:30.492192,1.00269795,.00047341,0.0689,247.2785,259.5488,236.9523,0,U,63075,999,531,0,-.348E-5,0
TJS-15,2025-045A,2026-07-22T12:10:15.765024,1.00271911,.000309,0.3115,85.6557,297.6615,193.9017,0,U,63157,999,511,0,-.261E-5,0
TIANLIAN 2-04,2025-062A,2026-07-22T20:15:27.119232,1.00272740,.00312727,4.2850,273.9250,9.2138,41.3472,0,U,63361,999,496,0,-.127E-5,0
TJS-16,2025-064A,2026-07-22T12:16:26.465088,1.00271665,.0002416,1.1868,81.2424,298.6317,265.0980,0,U,63397,999,474,0,-.103E-5,0
TJS-17,2025-073A,2026-07-22T12:11:01.804992,1.00271970,.0001022,1.1528,82.3957,323.4327,241.6719,0,U,63524,999,464,0,-.67E-6,0
TIANLIAN 2-05,2025-084A,2026-07-22T21:15:56.952576,1.00274468,.00028112,4.3625,279.4265,160.3349,200.2373,0,U,63662,999,474,0,.134E-5,0
TJS-19,2025-097A,2026-07-22T12:23:19.477824,1.00274057,.0004176,3.2283,318.0264,248.7017,60.6064,0,U,63924,999,449,0,-.269E-5,0
CHINASAT 3B,2025-106A,2026-07-22T18:57:37.036800,1.00271318,.00043437,0.0330,195.3200,311.2125,245.7028,0,U,64062,999,441,0,-.41E-6,0
SXM-10,2025-122A,2026-07-22T17:36:37.139616,1.00270646,.00017121,0.0177,46.4440,324.8574,77.1480,0,U,64290,999,404,0,-.13E-6,0
COSMOS 2589,2025-131A,2026-07-22T11:47:14.216064,1.00299459,.0001317,0.0296,115.0181,302.3327,157.7754,0,U,64467,999,391,0,-.292E-5,0
CHINASAT 9C,2025-132A,2026-07-22T22:01:32.473344,1.00272640,.00036177,0.0175,102.9940,13.7499,246.5048,0,U,64470,999,450,0,-.243E-5,0
MTG-S1,2025-143A,2026-07-22T22:18:14.482656,1.00275914,.00031721,0.5805,346.8369,255.9324,32.1378,0,U,64723,999,377,0,-.2E-7,0
DROR 1,2025-148A,2026-07-22T21:34:06.610368,1.00271076,.00019037,0.0130,328.0758,82.2969,209.7816,0,U,64784,999,365,0,-.3E-6,0
SHIYAN-29,2025-196A,2026-07-22T19:55:14.492640,1.00275016,.00132859,28.8597,18.0856,176.3842,140.2620,0,U,65486,999,323,0,-.281E-5,0
NUSANTARA LIMA (NUSANTARA 5),2025-205A,2026-07-22T18:42:08.521056,1.00271495,.00004196,0.0066,84.7527,99.5886,149.5664,0,U,65588,999,307,0,-.354E-5,0
TJS-20,2025-238A,2026-07-22T21:52:55.798752,1.00269690,.00040058,5.3906,299.4108,189.8420,202.0377,0,U,66142,999,269,0,.36E-6,0
CMS-03 (GSAT-7R),2025-249B,2026-07-22T21:16:38.931744,1.00272088,.00024664,0.0194,69.0683,49.6343,215.0706,0,U,66311,999,270,0,-.73E-6,0
VIASAT-3 F2,2025-261A,2026-07-22T14:22:09.153120,1.00272701,.00006617,0.0221,260.1519,316.7367,220.0309,0,U,66454,999,314,0,-.23E-5,0
SHIJIAN-28 (SJ-28),2025-277A,2026-07-22T17:00:33.096960,1.00273427,.00010588,4.4481,271.5664,58.5297,342.3362,0,U,66549,999,251,0,-.352E-5,0
TJS-22,2025-290A,2026-07-22T18:42:58.536288,1.00271447,.00029507,1.4446,287.0551,317.8268,42.8374,0,U,66990,999,238,0,-.1E-7,0
TJS-23,2025-306A,2026-07-22T12:06:48.728160,1.00269065,.00044337,5.5094,297.3022,203.0211,157.1425,0,U,67226,999,224,0,.26E-6,0
FENGYUN 4C,2025-312A,2026-07-13T15:48:28.031328,1.00269440,.00006584,0.0385,175.3203,48.7481,77.5697,0,U,67246,999,204,0,-.328E-5,0
SHIJIAN-29A (SJ-29A),2025-315A,2026-07-22T22:50:41.828064,1.00273402,.00053482,3.4863,94.2528,53.7920,208.5244,0,U,67302,999,197,0,-.67E-6,0
SHIJIAN-29B (SJ-29B),2025-315C,2026-07-22T22:50:40.715232,1.00273618,.00054194,3.4852,94.2456,55.4871,206.8764,0,U,67403,999,204,0,-.67E-6,0
ELEKTRO-L 5,2026-028A,2026-07-21T22:56:46.910400,1.00271768,.00020867,0.1994,328.9109,176.6572,214.4329,0,U,67756,999,160,0,-.95E-6,0
JAM-E JAM 1,2026-028B,2026-07-22T21:25:31.711296,1.00268547,.00007114,0.1935,316.8204,246.0778,93.0622,0,U,67757,999,147,0,.16E-5,0
ECHOSTAR 25,2026-045A,2026-07-22T07:22:40.045152,1.00272612,.00015679,0.0170,61.1347,56.2645,183.3123,0,U,68126,999,134,0,-.53E-6,0
TJS-24,2026-116A,2026-07-22T21:55:32.594880,1.00273212,.00002441,0.0960,93.7022,120.2681,145.8815,0,U,69235,999,58,0,-.228E-5,0
